{
    "links": {
        "self": "http://www.neowsapp.com/rest/v1/neo/3394708?api_key=iIulBulltgU6a56xZRHN4H3l9WmuAYTsLGpBGhQ2"
    },
    "id": "3394708",
    "neo_reference_id": "3394708",
    "name": "(2007 VA188)",
    "designation": "2007 VA188",
    "nasa_jpl_url": "http://ssd.jpl.nasa.gov/sbdb.cgi?sstr=3394708",
    "absolute_magnitude_h": 19.4,
    "estimated_diameter": {
        "kilometers": {
            "estimated_diameter_min": 0.3503926411,
            "estimated_diameter_max": 0.7835017643
        },
        "meters": {
            "estimated_diameter_min": 350.3926411083,
            "estimated_diameter_max": 783.5017643338
        },
        "miles": {
            "estimated_diameter_min": 0.2177238258,
            "estimated_diameter_max": 0.4868452748
        },
        "feet": {
            "estimated_diameter_min": 1149.5821926537,
            "estimated_diameter_max": 2570.543928497
        }
    },
    "is_potentially_hazardous_asteroid": false,
    "close_approach_data": [
        {
            "close_approach_date": "1969-11-22",
            "close_approach_date_full": "1969-Nov-22 03:41",
            "epoch_date_close_approach": -3442740000,
            "relative_velocity": {
                "kilometers_per_second": "5.4796999197",
                "kilometers_per_hour": "19726.9197110419",
                "miles_per_hour": "12257.5407504526"
            },
            "miss_distance": {
                "astronomical": "0.8488213075",
                "lunar": "330.1914886175",
                "kilometers": "126981859.612615025",
                "miles": "78902868.788636345"
            },
            "orbiting_body": "Juptr"
        },
        {
            "close_approach_date": "2005-06-30",
            "close_approach_date_full": "2005-Jun-30 07:49",
            "epoch_date_close_approach": 1120117740000,
            "relative_velocity": {
                "kilometers_per_second": "5.4688634231",
                "kilometers_per_hour": "19687.9083230161",
                "miles_per_hour": "12233.300591043"
            },
            "miss_distance": {
                "astronomical": "0.8510192565",
                "lunar": "331.0464907785",
                "kilometers": "127310668.101383655",
                "miles": "79107180.909478239"
            },
            "orbiting_body": "Juptr"
        },
        {
            "close_approach_date": "2007-11-08",
            "close_approach_date_full": "2007-Nov-08 01:25",
            "epoch_date_close_approach": 1194485100000,
            "relative_velocity": {
                "kilometers_per_second": "18.7302589982",
                "kilometers_per_hour": "67428.9323935103",
                "miles_per_hour": "41897.7163530675"
            },
            "miss_distance": {
                "astronomical": "0.328077243",
                "lunar": "127.622047527",
                "kilometers": "49079656.74827241",
                "miles": "30496684.553322858"
            },
            "orbiting_body": "Earth"
        },
        {
            "close_approach_date": "2041-01-17",
            "close_approach_date_full": "2041-Jan-17 18:58",
            "epoch_date_close_approach": 2242061880000,
            "relative_velocity": {
                "kilometers_per_second": "5.5854323638",
                "kilometers_per_hour": "20107.5565098078",
                "miles_per_hour": "12494.0536546636"
            },
            "miss_distance": {
                "astronomical": "1.0512932672",
                "lunar": "408.9530809408",
                "kilometers": "157271233.518460864",
                "miles": "97723812.9949493632"
            },
            "orbiting_body": "Juptr"
        },
        {
            "close_approach_date": "2124-02-22",
            "close_approach_date_full": "2124-Feb-22 08:34",
            "epoch_date_close_approach": 4864264440000,
            "relative_velocity": {
                "kilometers_per_second": "6.1109740408",
                "kilometers_per_hour": "21999.5065468831",
                "miles_per_hour": "13669.6378318674"
            },
            "miss_distance": {
                "astronomical": "0.8013603356",
                "lunar": "311.7291705484",
                "kilometers": "119881799.308245172",
                "miles": "74491095.8921284936"
            },
            "orbiting_body": "Juptr"
        }
    ],
    "orbital_data": {
        "orbit_id": "15",
        "orbit_determination_date": "2017-04-06 09:05:11",
        "first_observation_date": "2007-11-12",
        "last_observation_date": "2007-12-26",
        "data_arc_in_days": 44,
        "observations_used": 47,
        "orbit_uncertainty": "6",
        "minimum_orbit_intersection": ".123378",
        "jupiter_tisserand_invariant": "2.850",
        "epoch_osculation": "2459000.5",
        "eccentricity": ".6343009766375984",
        "semi_major_axis": "2.963176522636314",
        "inclination": "20.33251106561078",
        "ascending_node_longitude": "38.40299783874148",
        "orbital_period": "1863.093767395437",
        "perihelion_distance": "1.083630760378497",
        "perihelion_argument": "333.221101363724",
        "aphelion_distance": "4.842722284894132",
        "perihelion_time": "2458137.547686050669",
        "mean_anomaly": "166.7456777852136",
        "mean_motion": ".1932269895912281",
        "equinox": "J2000",
        "orbit_class": {
            "orbit_class_type": "AMO",
            "orbit_class_description": "Near-Earth asteroid orbits similar to that of 1221 Amor",
            "orbit_class_range": "1.017 AU < q (perihelion) < 1.3 AU"
        }
    },
    "is_sentry_object": false
}